{"type": "FeatureCollection", "features": [ {"type": "Feature", "properties": {"norad_id": 66540, "name": "STARLINK-35818", "group": "last-30-days", "lat": -25.923485304118298, "lon": 54.79762841689012, "alt_km": 382.1576721328511, "timestamp": "2025-12-07T05:38:08.684785+00:00", "meta": {"OBJECT_NAME": "STARLINK-35818", "OBJECT_ID": "2025-265AA", "EPOCH": "2025-12-06T14:00:01.999872", "MEAN_MOTION": 15.65135201, "ECCENTRICITY": 0.00012871, "INCLINATION": 43.0003, "RA_OF_ASC_NODE": 90.1262, "ARG_OF_PERICENTER": 278.4436, "MEAN_ANOMALY": 329.9236, "EPHEMERIS_TYPE": 0, "CLASSIFICATION_TYPE": "U", "NORAD_CAT_ID": 66540, "ELEMENT_SET_NO": 999, "REV_AT_EPOCH": 400, "BSTAR": -0.022214535, "MEAN_MOTION_DOT": -0.01986489, "MEAN_MOTION_DDOT": 0}, "tle": {"line1": "1 66540U 25265AA  25340.58335648 -.01986489  00000+0 -22215-1 0  9996", "line2": "2 66540  43.0003  90.1262 0001287 278.4436 329.9236 15.65135201  4002"}}, "geometry": {"type": "Point", "coordinates": [54.79762841689012, -25.923485304118298]}}, {"type": "Feature", "properties": {"norad_id": 66541, "name": "STARLINK-35796", "group": "last-30-days", "lat": -24.79843316785804, "lon": 56.51060785838951, "alt_km": 382.13080967330734, "timestamp": "2025-12-07T05:38:08.684795+00:00", "meta": {"OBJECT_NAME": "STARLINK-35796", "OBJECT_ID": "2025-265AB", "EPOCH": "2025-12-06T14:00:01.999872", "MEAN_MOTION": 15.65136822, "ECCENTRICITY": 0.00013215, "INCLINATION": 43.0004, "RA_OF_ASC_NODE": 90.1214, "ARG_OF_PERICENTER": 275.6231, "MEAN_ANOMALY": 334.6612, "EPHEMERIS_TYPE": 0, "CLASSIFICATION_TYPE": "U", "NORAD_CAT_ID": 66541, "ELEMENT_SET_NO": 999, "REV_AT_EPOCH": 400, "BSTAR": -0.022240758, "MEAN_MOTION_DOT": -0.0198869, "MEAN_MOTION_DDOT": 0}, "tle": {"line1": "1 66541U 25265AB  25340.58335648 -.01988690  00000+0 -22241-1 0  9992", "line2": "2 66541  43.0004  90.1214 0001321 275.6231 334.6612 15.65136822  4003"}}, "geometry": {"type": "Point", "coordinates": [56.51060785838951, -24.79843316785804]}}, {"type": "Feature", "properties": {"norad_id": 66542, "name": "STARLINK-35833", "group": "last-30-days", "lat": -23.655280952300973, "lon": 58.19084621758515, "alt_km": 382.07543617794545, "timestamp": "2025-12-07T05:38:08.684805+00:00", "meta": {"OBJECT_NAME": "STARLINK-35833", "OBJECT_ID": "2025-265AC", "EPOCH": "2025-12-06T14:00:01.999872", "MEAN_MOTION": 15.65136019, "ECCENTRICITY": 0.00012896, "INCLINATION": 43.0004, "RA_OF_ASC_NODE": 90.1168, "ARG_OF_PERICENTER": 276.2798, "MEAN_ANOMALY": 335.9227, "EPHEMERIS_TYPE": 0, "CLASSIFICATION_TYPE": "U", "NORAD_CAT_ID": 66542, "ELEMENT_SET_NO": 999, "REV_AT_EPOCH": 400, "BSTAR": -0.022239069, "MEAN_MOTION_DOT": -0.01988476, "MEAN_MOTION_DDOT": 0}, "tle": {"line1": "1 66542U 25265AC  25340.58335648 -.01988476  00000+0 -22239-1 0  9992", "line2": "2 66542  43.0004  90.1168 0001289 276.2798 335.9227 15.65136019  4004"}}, "geometry": {"type": "Point", "coordinates": [58.19084621758515, -23.655280952300973]}}, {"type": "Feature", "properties": {"norad_id": 66543, "name": "STARLINK-35315", "group": "last-30-days", "lat": -22.493015782410627, "lon": 59.842671567153644, "alt_km": 382.0681545750258, "timestamp": "2025-12-07T05:38:08.684817+00:00", "meta": {"OBJECT_NAME": "STARLINK-35315", "OBJECT_ID": "2025-265AD", "EPOCH": "2025-12-06T14:00:01.999872", "MEAN_MOTION": 15.65135923, "ECCENTRICITY": 0.00012251, "INCLINATION": 43.0004, "RA_OF_ASC_NODE": 90.1115, "ARG_OF_PERICENTER": 274.5946, "MEAN_ANOMALY": 339.5245, "EPHEMERIS_TYPE": 0, "CLASSIFICATION_TYPE": "U", "NORAD_CAT_ID": 66543, "ELEMENT_SET_NO": 999, "REV_AT_EPOCH": 389, "BSTAR": -0.022226942, "MEAN_MOTION_DOT": -0.01987468, "MEAN_MOTION_DDOT": 0}, "tle": {"line1": "1 66543U 25265AD  25340.58335648 -.01987468  00000+0 -22227-1 0  9990", "line2": "2 66543  43.0004  90.1115 0001225 274.5946 339.5245 15.65135923  3892"}}, "geometry": {"type": "Point", "coordinates": [59.842671567153644, -22.493015782410627]}}, {"type": "Feature", "properties": {"norad_id": 66544, "name": "STARLINK-35728", "group": "last-30-days", "lat": -21.314546319151933, "lon": 61.46668513961489, "alt_km": 381.8941476844666, "timestamp": "2025-12-07T05:38:08.684827+00:00", "meta": {"OBJECT_NAME": "STARLINK-35728", "OBJECT_ID": "2025-265AE", "EPOCH": "2025-12-06T14:00:01.999872", "MEAN_MOTION": 15.6513518, "ECCENTRICITY": 0.00013579, "INCLINATION": 43.0002, "RA_OF_ASC_NODE": 90.107, "ARG_OF_PERICENTER": 276.7542, "MEAN_ANOMALY": 339.2818, "EPHEMERIS_TYPE": 0, "CLASSIFICATION_TYPE": "U", "NORAD_CAT_ID": 66544, "ELEMENT_SET_NO": 999, "REV_AT_EPOCH": 400, "BSTAR": -0.022216818, "MEAN_MOTION_DOT": -0.0198672, "MEAN_MOTION_DDOT": 0}, "tle": {"line1": "1 66544U 25265AE  25340.58335648 -.01986720  00000+0 -22217-1 0  9990", "line2": "2 66544  43.0002  90.1070 0001357 276.7542 339.2818 15.65135180  4005"}}, "geometry": {"type": "Point", "coordinates": [61.46668513961489, -21.314546319151933]}}, {"type": "Feature", "properties": {"norad_id": 66545, "name": "SHIJIAN-30A", "group": "last-30-days", "lat": 51.70348587502199, "lon": 92.90708984730782, "alt_km": 516.2753633682805, "timestamp": "2025-12-07T05:38:08.684837+00:00", "meta": {"OBJECT_NAME": "SHIJIAN-30A", "OBJECT_ID": "2025-266A", "EPOCH": "2025-12-06T13:24:09.426816", "MEAN_MOTION": 15.1546282, "ECCENTRICITY": 0.0012813, "INCLINATION": 51.7998, "RA_OF_ASC_NODE": 1.8189, "ARG_OF_PERICENTER": 334.3439, "MEAN_ANOMALY": 25.6901, "EPHEMERIS_TYPE": 0, "CLASSIFICATION_TYPE": "U", "NORAD_CAT_ID": 66545, "ELEMENT_SET_NO": 999, "REV_AT_EPOCH": 264, "BSTAR": 0.00093337, "MEAN_MOTION_DOT": 0.00017647, "MEAN_MOTION_DDOT": 0}, "tle": {"line1": "1 66545U 25266A   25340.55844244  .00017647  00000+0  93337-3 0  9999", "line2": "2 66545  51.7998   1.8189 0012813 334.3439  25.6901 15.15462820  2647"}}, "geometry": {"type": "Point", "coordinates": [92.90708984730782, 51.70348587502199]}}, {"type": "Feature", "properties": {"norad_id": 66546, "name": "SHIJIAN-30B", "group": "last-30-days", "lat": 51.74462233363833, "lon": 85.82424047590237, "alt_km": 514.4454292966211, "timestamp": "2025-12-07T05:38:08.684847+00:00", "meta": {"OBJECT_NAME": "SHIJIAN-30B", "OBJECT_ID": "2025-266B", "EPOCH": "2025-12-06T13:25:21.995904", "MEAN_MOTION": 15.15543524, "ECCENTRICITY": 0.0010535, "INCLINATION": 51.798, "RA_OF_ASC_NODE": 1.8226, "ARG_OF_PERICENTER": 337.4784, "MEAN_ANOMALY": 22.5728, "EPHEMERIS_TYPE": 0, "CLASSIFICATION_TYPE": "U", "NORAD_CAT_ID": 66546, "ELEMENT_SET_NO": 999, "REV_AT_EPOCH": 264, "BSTAR": 0.0010955, "MEAN_MOTION_DOT": 0.00020811, "MEAN_MOTION_DDOT": 0}, "tle": {"line1": "1 66546U 25266B   25340.55928236  .00020811  00000+0  10955-2 0  9995", "line2": "2 66546  51.7980   1.8226 0010535 337.4784  22.5728 15.15543524  2641"}}, "geometry": {"type": "Point", "coordinates": [85.82424047590237, 51.74462233363833]}}, {"type": "Feature", "properties": {"norad_id": 66547, "name": "SHIJIAN-30C", "group": "last-30-days", "lat": 51.441792845212916, "lon": 79.7626672617319, "alt_km": 515.157975320697, "timestamp": "2025-12-07T05:38:08.684857+00:00", "meta": {"OBJECT_NAME": "SHIJIAN-30C", "OBJECT_ID": "2025-266C", "EPOCH": "2025-12-06T13:26:22.165728", "MEAN_MOTION": 15.15562241, "ECCENTRICITY": 0.0011392, "INCLINATION": 51.7991, "RA_OF_ASC_NODE": 1.8275, "ARG_OF_PERICENTER": 329.5845, "MEAN_ANOMALY": 30.4469, "EPHEMERIS_TYPE": 0, "CLASSIFICATION_TYPE": "U", "NORAD_CAT_ID": 66547, "ELEMENT_SET_NO": 999, "REV_AT_EPOCH": 264, "BSTAR": 0.00092365, "MEAN_MOTION_DOT": 0.00017503, "MEAN_MOTION_DDOT": 0}, "tle": {"line1": "1 66547U 25266C   25340.55997877  .00017503  00000+0  92365-3 0  9993", "line2": "2 66547  51.7991   1.8275 0011392 329.5845  30.4469 15.15562241  2647"}}, "geometry": {"type": "Point", "coordinates": [79.7626672617319, 51.441792845212916]}}, {"type": "Feature", "properties": {"norad_id": 66548, "name": "CZ-2C R/B", "group": "last-30-days", "lat": -43.189462437168324, "lon": -49.58935428797757, "alt_km": 527.6449862005657, "timestamp": "2025-12-07T05:38:08.684867+00:00", "meta": {"OBJECT_NAME": "CZ-2C R/B", "OBJECT_ID": "2025-266D", "EPOCH": "2025-12-06T12:39:30.557664", "MEAN_MOTION": 15.29983106, "ECCENTRICITY": 0.0084367, "INCLINATION": 52.0564, "RA_OF_ASC_NODE": 0.8718, "ARG_OF_PERICENTER": 151.899, "MEAN_ANOMALY": 208.6588, "EPHEMERIS_TYPE": 0, "CLASSIFICATION_TYPE": "U", "NORAD_CAT_ID": 66548, "ELEMENT_SET_NO": 999, "REV_AT_EPOCH": 266, "BSTAR": 0.00056912514, "MEAN_MOTION_DOT": 0.00018331, "MEAN_MOTION_DDOT": 0}, "tle": {"line1": "1 66548U 25266D   25340.52743701  .00018331  00000+0  56913-3 0  9995", "line2": "2 66548  52.0564   0.8718 0084367 151.8990 208.6588 15.29983106  2663"}}, "geometry": {"type": "Point", "coordinates": [-49.58935428797757, -43.189462437168324]}}, {"type": "Feature", "properties": {"norad_id": 66549, "name": "SHIJIAN-28", "group": "last-30-days", "lat": -3.6746903758046674, "lon": -101.65677476087659, "alt_km": 30208.660274395665, "timestamp": "2025-12-07T05:38:08.684880+00:00", "meta": {"OBJECT_NAME": "SHIJIAN-28", "OBJECT_ID": "2025-277A", "EPOCH": "2025-11-30T18:06:43.124256", "MEAN_MOTION": 2.28019775, "ECCENTRICITY": 0.7300519, "INCLINATION": 14.4344, "RA_OF_ASC_NODE": 275.4056, "ARG_OF_PERICENTER": 179.5026, "MEAN_ANOMALY": 182.358, "EPHEMERIS_TYPE": 0, "CLASSIFICATION_TYPE": "U", "NORAD_CAT_ID": 66549, "ELEMENT_SET_NO": 999, "REV_AT_EPOCH": 4, "BSTAR": 0.00062085, "MEAN_MOTION_DOT": 6.315e-05, "MEAN_MOTION_DDOT": 0}, "tle": {"line1": "1 66549U 25277A   25334.75466579  .00006315  00000+0  62085-3 0  9997", "line2": "2 66549  14.4344 275.4056 7300519 179.5026 182.3580  2.28019775    48"}}, "geometry": {"type": "Point", "coordinates": [-101.65677476087659, -3.6746903758046674]}}]}